DELTA 2 R/B(1)          
1 20453U 90008B   26048.07953304  .00074977  00000+0  96417-3 0  9995
2 20453  35.6050 309.8085 0090077  66.1799 294.8349 15.53084967922920
COSMOS 2058             
1 20465U 90010A   26048.51924214  .00004148  00000+0  24555-3 0  9995
2 20465  82.4654  67.2989 0011096  51.8196 308.4032 15.11130412939196
SL-14 R/B               
1 20466U 90010B   26048.18302487  .00000440  00000+0  50448-4 0  9993
2 20466  82.5014 286.6537 0020143  11.9550 348.2139 14.83551001925440
SL-14 R/B               
1 20511U 90018B   26048.58614836  .00000409  00000+0  48320-4 0  9991
2 20511  82.5179 241.8835 0016919 153.6921 206.5157 14.82122056919609
HST                     
1 20580U 90037B   26048.38665745  .00008081  00000+0  26964-3 0  9994
2 20580  28.4679 178.4659 0001160 240.9363 119.1116 15.29146763770208
SL-16 R/B               
1 20625U 90046B   26048.26728872  .00000310  00000+0  18446-3 0  9995
2 20625  71.0015 340.8028 0015277 328.1534  31.8663 14.15012001845508
COSMOS 2084             
1 20663U 90055A   26048.39815919  .00003046  00000+0  22375-3 0  9995
2 20663  62.7899  44.7769 0020183 185.5143 174.5739 15.05514009933267
SL-6 R/B(2)             
1 20666U 90055D   26048.15376800  .00002870  00000+0  22303-3 0  9998
2 20666  62.7846 323.6811 0021679 341.6533  18.3782 15.03491534935101
SL-8 R/B                
1 20775U 90078B   26048.61328881  .00014367  00000+0  42159-3 0  9996
2 20775  82.9004 269.3573 0366112  81.2958 282.9540 14.88376399806319
SL-8 R/B                
1 21088U 91006B   26048.50539300  .00000016  00000+0  68745-6 0  9992
2 21088  82.9447 185.0508 0023776  92.1779 335.9878 13.77492333761292
OKEAN-3                 
1 21397U 91039A   26048.33026940  .00004927  00000+0  34774-3 0  9990
2 21397  82.5199 356.5604 0015845  44.2077 316.0412 15.04645083861978
COSMOS 2151             
1 21422U 91042A   26048.60493497  .00001542  00000+0  12156-3 0  9998
2 21422  82.4950 103.0530 0013854 124.0165 236.2377 15.00025424860189
