CCSDS_OMM_VERS = 2.0
CREATION_DATE  = 
ORIGINATOR     = 

OBJECT_NAME    = DELTA 2 R/B(1)
OBJECT_ID      = 1990-008B
CENTER_NAME    = EARTH
REF_FRAME      = TEME
TIME_SYSTEM    = UTC
MEAN_ELEMENT_THEORY = SGP/SGP4

EPOCH          = 2026-02-17T01:54:31.654656
MEAN_MOTION    = 15.53084967
ECCENTRICITY   = .00900776
INCLINATION    = 35.6050
RA_OF_ASC_NODE = 309.8085
ARG_OF_PERICENTER = 66.1799
MEAN_ANOMALY   = 294.8349

EPHEMERIS_TYPE = 0
CLASSIFICATION_TYPE = U
NORAD_CAT_ID   = 20453
ELEMENT_SET_NO = 999
REV_AT_EPOCH   = 92292
BSTAR          = .96417267E-3
MEAN_MOTION_DOT = .74977E-3
MEAN_MOTION_DDOT = 0

CCSDS_OMM_VERS = 2.0
CREATION_DATE  = 
ORIGINATOR     = 

OBJECT_NAME    = COSMOS 2058
OBJECT_ID      = 1990-010A
CENTER_NAME    = EARTH
REF_FRAME      = TEME
TIME_SYSTEM    = UTC
MEAN_ELEMENT_THEORY = SGP/SGP4

EPOCH          = 2026-02-17T12:27:42.520896
MEAN_MOTION    = 15.11130412
ECCENTRICITY   = .00110964
INCLINATION    = 82.4654
RA_OF_ASC_NODE = 67.2989
ARG_OF_PERICENTER = 51.8196
MEAN_ANOMALY   = 308.4032

EPHEMERIS_TYPE = 0
CLASSIFICATION_TYPE = U
NORAD_CAT_ID   = 20465
ELEMENT_SET_NO = 999
REV_AT_EPOCH   = 93919
BSTAR          = .24554536E-3
MEAN_MOTION_DOT = .4148E-4
MEAN_MOTION_DDOT = 0

CCSDS_OMM_VERS = 2.0
CREATION_DATE  = 
ORIGINATOR     = 

OBJECT_NAME    = SL-14 R/B
OBJECT_ID      = 1990-010B
CENTER_NAME    = EARTH
REF_FRAME      = TEME
TIME_SYSTEM    = UTC
MEAN_ELEMENT_THEORY = SGP/SGP4

EPOCH          = 2026-02-17T04:23:33.348768
MEAN_MOTION    = 14.83551001
ECCENTRICITY   = .0020143
INCLINATION    = 82.5014
RA_OF_ASC_NODE = 286.6537
ARG_OF_PERICENTER = 11.9550
MEAN_ANOMALY   = 348.2139

EPHEMERIS_TYPE = 0
CLASSIFICATION_TYPE = U
NORAD_CAT_ID   = 20466
ELEMENT_SET_NO = 999
REV_AT_EPOCH   = 92544
BSTAR          = .50448E-4
MEAN_MOTION_DOT = .44E-5
MEAN_MOTION_DDOT = 0

CCSDS_OMM_VERS = 2.0
CREATION_DATE  = 
ORIGINATOR     = 

OBJECT_NAME    = SL-14 R/B
OBJECT_ID      = 1990-018B
CENTER_NAME    = EARTH
REF_FRAME      = TEME
TIME_SYSTEM    = UTC
MEAN_ELEMENT_THEORY = SGP/SGP4

EPOCH          = 2026-02-17T14:04:03.218304
MEAN_MOTION    = 14.82122056
ECCENTRICITY   = .00169197
INCLINATION    = 82.5179
RA_OF_ASC_NODE = 241.8835
ARG_OF_PERICENTER = 153.6921
MEAN_ANOMALY   = 206.5157

EPHEMERIS_TYPE = 0
CLASSIFICATION_TYPE = U
NORAD_CAT_ID   = 20511
ELEMENT_SET_NO = 999
REV_AT_EPOCH   = 91960
BSTAR          = .48319762E-4
MEAN_MOTION_DOT = .409E-5
MEAN_MOTION_DDOT = 0

CCSDS_OMM_VERS = 2.0
CREATION_DATE  = 
ORIGINATOR     = 

OBJECT_NAME    = HST
OBJECT_ID      = 1990-037B
CENTER_NAME    = EARTH
REF_FRAME      = TEME
TIME_SYSTEM    = UTC
MEAN_ELEMENT_THEORY = SGP/SGP4

EPOCH          = 2026-02-17T09:16:47.203680
MEAN_MOTION    = 15.29146763
ECCENTRICITY   = .00011609
INCLINATION    = 28.4679
RA_OF_ASC_NODE = 178.4659
ARG_OF_PERICENTER = 240.9363
MEAN_ANOMALY   = 119.1116

EPHEMERIS_TYPE = 0
CLASSIFICATION_TYPE = U
NORAD_CAT_ID   = 20580
ELEMENT_SET_NO = 999
REV_AT_EPOCH   = 77020
BSTAR          = .26963616E-3
MEAN_MOTION_DOT = .8081E-4
MEAN_MOTION_DDOT = 0

CCSDS_OMM_VERS = 2.0
CREATION_DATE  = 
ORIGINATOR     = 

OBJECT_NAME    = SL-16 R/B
OBJECT_ID      = 1990-046B
CENTER_NAME    = EARTH
REF_FRAME      = TEME
TIME_SYSTEM    = UTC
MEAN_ELEMENT_THEORY = SGP/SGP4

EPOCH          = 2026-02-17T06:24:53.745408
MEAN_MOTION    = 14.15012001
ECCENTRICITY   = .0015277
INCLINATION    = 71.0015
RA_OF_ASC_NODE = 340.8028
ARG_OF_PERICENTER = 328.1534
MEAN_ANOMALY   = 31.8663

EPHEMERIS_TYPE = 0
CLASSIFICATION_TYPE = U
NORAD_CAT_ID   = 20625
ELEMENT_SET_NO = 999
REV_AT_EPOCH   = 84550
BSTAR          = .18446E-3
MEAN_MOTION_DOT = .31E-5
MEAN_MOTION_DDOT = 0

CCSDS_OMM_VERS = 2.0
CREATION_DATE  = 
ORIGINATOR     = 

OBJECT_NAME    = COSMOS 2084
OBJECT_ID      = 1990-055A
CENTER_NAME    = EARTH
REF_FRAME      = TEME
TIME_SYSTEM    = UTC
MEAN_ELEMENT_THEORY = SGP/SGP4

EPOCH          = 2026-02-17T09:33:20.954016
MEAN_MOTION    = 15.05514009
ECCENTRICITY   = .00201833
INCLINATION    = 62.7899
RA_OF_ASC_NODE = 44.7769
ARG_OF_PERICENTER = 185.5143
MEAN_ANOMALY   = 174.5739

EPHEMERIS_TYPE = 0
CLASSIFICATION_TYPE = U
NORAD_CAT_ID   = 20663
ELEMENT_SET_NO = 999
REV_AT_EPOCH   = 93326
BSTAR          = .22375331E-3
MEAN_MOTION_DOT = .3046E-4
MEAN_MOTION_DDOT = 0

CCSDS_OMM_VERS = 2.0
CREATION_DATE  = 
ORIGINATOR     = 

OBJECT_NAME    = SL-6 R/B(2)
OBJECT_ID      = 1990-055D
CENTER_NAME    = EARTH
REF_FRAME      = TEME
TIME_SYSTEM    = UTC
MEAN_ELEMENT_THEORY = SGP/SGP4

EPOCH          = 2026-02-17T03:41:25.555200
MEAN_MOTION    = 15.03491534
ECCENTRICITY   = .00216796
INCLINATION    = 62.7846
RA_OF_ASC_NODE = 323.6811
ARG_OF_PERICENTER = 341.6533
MEAN_ANOMALY   = 18.3782

EPHEMERIS_TYPE = 0
CLASSIFICATION_TYPE = U
NORAD_CAT_ID   = 20666
ELEMENT_SET_NO = 999
REV_AT_EPOCH   = 93510
BSTAR          = .22303288E-3
MEAN_MOTION_DOT = .287E-4
MEAN_MOTION_DDOT = 0

CCSDS_OMM_VERS = 2.0
CREATION_DATE  = 
ORIGINATOR     = 

OBJECT_NAME    = SL-8 R/B
OBJECT_ID      = 1990-078B
CENTER_NAME    = EARTH
REF_FRAME      = TEME
TIME_SYSTEM    = UTC
MEAN_ELEMENT_THEORY = SGP/SGP4

EPOCH          = 2026-02-17T14:43:08.153184
MEAN_MOTION    = 14.88376399
ECCENTRICITY   = .03661126
INCLINATION    = 82.9004
RA_OF_ASC_NODE = 269.3573
ARG_OF_PERICENTER = 81.2958
MEAN_ANOMALY   = 282.9540

EPHEMERIS_TYPE = 0
CLASSIFICATION_TYPE = U
NORAD_CAT_ID   = 20775
ELEMENT_SET_NO = 999
REV_AT_EPOCH   = 80631
BSTAR          = .42159097E-3
MEAN_MOTION_DOT = .14367E-3
MEAN_MOTION_DDOT = 0

CCSDS_OMM_VERS = 2.0
CREATION_DATE  = 
ORIGINATOR     = 

OBJECT_NAME    = SL-8 R/B
OBJECT_ID      = 1991-006B
CENTER_NAME    = EARTH
REF_FRAME      = TEME
TIME_SYSTEM    = UTC
MEAN_ELEMENT_THEORY = SGP/SGP4

EPOCH          = 2026-02-17T12:07:45.955200
MEAN_MOTION    = 13.77492333
ECCENTRICITY   = .00237768
INCLINATION    = 82.9447
RA_OF_ASC_NODE = 185.0508
ARG_OF_PERICENTER = 92.1779
MEAN_ANOMALY   = 335.9878

EPHEMERIS_TYPE = 0
CLASSIFICATION_TYPE = U
NORAD_CAT_ID   = 21088
ELEMENT_SET_NO = 999
REV_AT_EPOCH   = 76129
BSTAR          = .687451E-6
MEAN_MOTION_DOT = .16E-6
MEAN_MOTION_DDOT = 0

CCSDS_OMM_VERS = 2.0
CREATION_DATE  = 
ORIGINATOR     = 

OBJECT_NAME    = OKEAN-3
OBJECT_ID      = 1991-039A
CENTER_NAME    = EARTH
REF_FRAME      = TEME
TIME_SYSTEM    = UTC
MEAN_ELEMENT_THEORY = SGP/SGP4

EPOCH          = 2026-02-17T07:55:35.276160
MEAN_MOTION    = 15.04645083
ECCENTRICITY   = .00158453
INCLINATION    = 82.5199
RA_OF_ASC_NODE = 356.5604
ARG_OF_PERICENTER = 44.2077
MEAN_ANOMALY   = 316.0412

EPHEMERIS_TYPE = 0
CLASSIFICATION_TYPE = U
NORAD_CAT_ID   = 21397
ELEMENT_SET_NO = 999
REV_AT_EPOCH   = 86197
BSTAR          = .34773852E-3
MEAN_MOTION_DOT = .4927E-4
MEAN_MOTION_DDOT = 0

CCSDS_OMM_VERS = 2.0
CREATION_DATE  = 
ORIGINATOR     = 

OBJECT_NAME    = COSMOS 2151
OBJECT_ID      = 1991-042A
CENTER_NAME    = EARTH
REF_FRAME      = TEME
TIME_SYSTEM    = UTC
MEAN_ELEMENT_THEORY = SGP/SGP4

EPOCH          = 2026-02-17T14:31:06.381408
MEAN_MOTION    = 15.00025424
ECCENTRICITY   = .00138549
INCLINATION    = 82.4950
RA_OF_ASC_NODE = 103.0530
ARG_OF_PERICENTER = 124.0165
MEAN_ANOMALY   = 236.2377

EPHEMERIS_TYPE = 0
CLASSIFICATION_TYPE = U
NORAD_CAT_ID   = 21422
ELEMENT_SET_NO = 999
REV_AT_EPOCH   = 86018
BSTAR          = .12156008E-3
MEAN_MOTION_DOT = .1542E-4
MEAN_MOTION_DDOT = 0

